API VERSION: 1.2
API SOURCE: NASA/JPL Horizons API

*******************************************************************************
 Revised: April 12, 2021       Neptune Barycenter                             8
 
 Dynamical point:
 ---------------
 The location of the center-of-mass of the Neptune system. The point about 
 which Neptune and its satellites revolve. See 899 for Neptune center.
*******************************************************************************


*******************************************************************************
Ephemeris / API_USER Sun May 18 03:22:17 2025 Pasadena, USA      / Horizons
*******************************************************************************
Target body name: Neptune Barycenter (8)          {source: DE441}
Center body name: Sun (10)                        {source: DE441}
Center-site name: BODY CENTER
*******************************************************************************
Start time      : A.D. 2011-Aug-09 12:00:00.0000 TDB
Stop  time      : A.D. 2014-Dec-31 12:00:00.0000 TDB
Step-size       : 1440 minutes
*******************************************************************************
Center geodetic : 0.0, 0.0, 0.0                   {E-lon(deg),Lat(deg),Alt(km)}
Center cylindric: 0.0, 0.0, 0.0                   {E-lon(deg),Dxy(km),Dz(km)}
Center radii    : 695700.0, 695700.0, 695700.0 km {Equator_a, b, pole_c}
Output units    : KM-S
Calendar mode   : Mixed Julian/Gregorian
Output type     : GEOMETRIC cartesian states
Output format   : 3 (position, velocity, LT, range, range-rate)
Reference frame : Ecliptic of J2000.0
*******************************************************************************
JDTDB
   X     Y     Z
   VX    VY    VZ
   LT    RG    RR
*******************************************************************************
$$SOE
2456026.000000000 = A.D. 2012-Apr-08 12:00:00.0000 TDB 
 X = 3.914617502453894E+09 Y =-2.194149322338395E+09 Z =-4.501558603177679E+07
 VX= 2.613357767148180E+00 VY= 4.779718139862032E+00 VZ=-1.585447866368412E-01
 LT= 1.496976342017438E+04 RG= 4.487822171412564E+09 RR=-5.570235763893854E-02
2456027.000000000 = A.D. 2012-Apr-09 12:00:00.0000 TDB 
 X = 3.914843274771064E+09 Y =-2.193736343261950E+09 Z =-4.502928404810917E+07
 VX= 2.612853276208240E+00 VY= 4.779982708477399E+00 VZ=-1.585389242093993E-01
 LT= 1.496974736711744E+04 RG= 4.487817358827165E+09 RR=-5.570008696557413E-02
2456028.000000000 = A.D. 2012-Apr-10 12:00:00.0000 TDB 
 X = 3.915069003499602E+09 Y =-2.193323341325560E+09 Z =-4.504298155778480E+07
 VX= 2.612348770677834E+00 VY= 4.780247305242437E+00 VZ=-1.585330584658948E-01
 LT= 1.496973131471067E+04 RG= 4.487812546436683E+09 RR=-5.569784594845748E-02
2456029.000000000 = A.D. 2012-Apr-11 12:00:00.0000 TDB 
 X = 3.915294688638155E+09 Y =-2.192910316526800E+09 Z =-4.505667856051469E+07
 VX= 2.611844248400401E+00 VY= 4.780511929933332E+00 VZ=-1.585271893479840E-01
 LT= 1.496971526294528E+04 RG= 4.487807734238481E+09 RR=-5.569563633431886E-02
2456030.000000000 = A.D. 2012-Apr-12 12:00:00.0000 TDB 
 X = 3.915520330185180E+09 Y =-2.192497268863270E+09 Z =-4.507037505600476E+07
 VX= 2.611339707174856E+00 VY= 4.780776582306038E+00 VZ=-1.585213167905846E-01
 LT= 1.496969921181196E+04 RG= 4.487802922229769E+09 RR=-5.569345989957037E-02
2456031.000000000 = A.D. 2012-Apr-13 12:00:00.0000 TDB 
 X = 3.915745928138945E+09 Y =-2.192084198332588E+09 Z =-4.508407104395497E+07
 VX= 2.610835144755164E+00 VY= 4.781041262088827E+00 VZ=-1.585154407223688E-01
 LT= 1.496968316130088E+04 RG= 4.487798110407602E+09 RR=-5.569131844706270E-02
2456032.000000000 = A.D. 2012-Apr-14 12:00:00.0000 TDB 
 X = 3.915971482497518E+09 Y =-2.191671104932401E+09 Z =-4.509776652405834E+07
 VX= 2.610330558850166E+00 VY= 4.781305968975211E+00 VZ=-1.585095610662519E-01
 LT= 1.496966711140172E+04 RG= 4.487793298768881E+09 RR=-5.568921380280376E-02
2456033.000000000 = A.D. 2012-Apr-15 12:00:00.0000 TDB 
 X = 3.916196993258770E+09 Y =-2.191257988660379E+09 Z =-4.511146149600172E+07
 VX= 2.609825947123620E+00 VY= 4.781570702617156E+00 VZ=-1.585036777398823E-01
 LT= 1.496965106210359E+04 RG= 4.487788487310345E+09 RR=-5.568714781263287E-02
2456034.000000000 = A.D. 2012-Apr-16 12:00:00.0000 TDB 
 X = 3.916422460420368E+09 Y =-2.190844849514229E+09 Z =-4.512515595946395E+07
 VX= 2.609321307194379E+00 VY= 4.781835462618462E+00 VZ=-1.584977906561380E-01
 LT= 1.496963501339507E+04 RG= 4.487783676028571E+09 RR=-5.568512233887517E-02
2456035.000000000 = A.D. 2012-Apr-17 12:00:00.0000 TDB 
 X = 3.916647883979771E+09 Y =-2.190431687491692E+09 Z =-4.513884991411602E+07
 VX= 2.608816636636694E+00 VY= 4.782100248528304E+00 VZ=-1.584918997236211E-01
 LT= 1.496961896526424E+04 RG= 4.487778864919983E+09 RR=-5.568313925694890E-02
2456036.000000000 = A.D. 2012-Apr-18 12:00:00.0000 TDB 
 X = 3.916873263934226E+09 Y =-2.190018502590552E+09 Z =-4.515254335962248E+07
 VX= 2.608311932980575E+00 VY= 4.782365059834723E+00 VZ=-1.584860048471706E-01
 LT= 1.496960291769859E+04 RG= 4.487774053980833E+09 RR=-5.568120045192299E-02
2456037.000000000 = A.D. 2012-Apr-19 12:00:00.0000 TDB 
 X = 3.917098600280765E+09 Y =-2.189605294808638E+09 Z =-4.516623629563725E+07
 VX= 2.607807193712236E+00 VY= 4.782629895958060E+00 VZ=-1.584801059283862E-01
 LT= 1.496958687068511E+04 RG= 4.487769243207215E+09 RR=-5.567930781495635E-02
2456038.000000000 = A.D. 2012-Apr-20 12:00:00.0000 TDB 
 X = 3.917323893016200E+09 Y =-2.189192064143834E+09 Z =-4.517992872180736E+07
 VX= 2.607302416274620E+00 VY= 4.782894756244204E+00 VZ=-1.584742028661887E-01
 LT= 1.496957082421019E+04 RG= 4.487764432595058E+09 RR=-5.567746323959889E-02
2456039.000000000 = A.D. 2012-Apr-21 12:00:00.0000 TDB 
 X = 3.917549142137123E+09 Y =-2.188778810594084E+09 Z =-4.519362063777041E+07
 VX= 2.606797598067999E+00 VY= 4.783159639957518E+00 VZ=-1.584682955574055E-01
 LT= 1.496955477825973E+04 RG= 4.487759622140129E+09 RR=-5.567566861786408E-02
2456040.000000000 = A.D. 2012-Apr-22 12:00:00.0000 TDB 
 X = 3.917774347639896E+09 Y =-2.188365534157399E+09 Z =-4.520731204315436E+07
 VX= 2.606292736450695E+00 VY= 4.783424546273369E+00 VZ=-1.584623838974137E-01
 LT= 1.496953873281905E+04 RG= 4.487754811838029E+09 RR=-5.567392583600823E-02
2456041.000000000 = A.D. 2012-Apr-23 12:00:00.0000 TDB 
 X = 3.917999509520654E+09 Y =-2.187952234831863E+09 Z =-4.522100293757951E+07
 VX= 2.605787828739979E+00 VY= 4.783689474270123E+00 VZ=-1.584564677808393E-01
 LT= 1.496952268787294E+04 RG= 4.487750001684196E+09 RR=-5.567223676989361E-02
2456042.000000000 = A.D. 2012-Apr-24 12:00:00.0000 TDB 
 X = 3.918224627775297E+09 Y =-2.187538912615650E+09 Z =-4.523469332065558E+07
 VX= 2.605282872213214E+00 VY= 4.783954422920478E+00 VZ=-1.584505471023461E-01
 LT= 1.496950664340567E+04 RG= 4.487745191673914E+09 RR=-5.567060327983102E-02
2456043.000000000 = A.D. 2012-Apr-25 12:00:00.0000 TDB 
 X = 3.918449702399487E+09 Y =-2.187125567507021E+09 Z =-4.524838319198430E+07
 VX= 2.604777864109352E+00 VY= 4.784219391082010E+00 VZ=-1.584446217575159E-01
 LT= 1.496949059940093E+04 RG= 4.487740381802298E+09 RR=-5.566902720472188E-02
2456044.000000000 = A.D. 2012-Apr-26 12:00:00.0000 TDB 
 X = 3.918674733388649E+09 Y =-2.186712199504345E+09 Z =-4.526207255115795E+07
 VX= 2.604272801630891E+00 VY= 4.784484377486769E+00 VZ=-1.584386916438565E-01
 LT= 1.496947455584192E+04 RG= 4.487735572064307E+09 RR=-5.566751035534365E-02
2456045.000000000 = A.D. 2012-Apr-27 12:00:00.0000 TDB 
 X = 3.918899720737962E+09 Y =-2.186298808606106E+09 Z =-4.527576139776015E+07
 VX= 2.603767681946507E+00 VY= 4.784749380729817E+00 VZ=-1.584327566619694E-01
 LT= 1.496945851271132E+04 RG= 4.487730762454751E+09 RR=-5.566605450654135E-02
2456046.000000000 = A.D. 2012-Apr-28 12:00:00.0000 TDB 
 X = 3.919124664442359E+09 Y =-2.185885394810915E+09 Z =-4.528944973136628E+07
 VX= 2.603262502194542E+00 VY= 4.785014399256510E+00 VZ=-1.584268167168850E-01
 LT= 1.496944246999130E+04 RG= 4.487725952968282E+09 RR=-5.566466138805564E-02
2456047.000000000 = A.D. 2012-Apr-29 12:00:00.0000 TDB 
 X = 3.919349564496528E+09 Y =-2.185471958117524E+09 Z =-4.530313755154335E+07
 VX= 2.602757259487658E+00 VY= 4.785279431348429E+00 VZ=-1.584208717196385E-01
 LT= 1.496942642766353E+04 RG= 4.487721143599407E+09 RR=-5.566333267367968E-02
2456048.000000000 = A.D. 2012-Apr-30 12:00:00.0000 TDB 
 X = 3.919574420894902E+09 Y =-2.185058498524842E+09 Z =-4.531682485785151E+07
 VX= 2.602251950918984E+00 VY= 4.785544475107802E+00 VZ=-1.584149215890986E-01
 LT= 1.496941038570922E+04 RG= 4.487716334342495E+09 RR=-5.566206996839407E-02
2456049.000000000 = A.D. 2012-May-01 12:00:00.0000 TDB 
 X = 3.919799233631665E+09 Y =-2.184645016031950E+09 Z =-4.533051164984405E+07
 VX= 2.601746573570047E+00 VY= 4.785809528440270E+00 VZ=-1.584089662541099E-01
 LT= 1.496939434410913E+04 RG= 4.487711525191773E+09 RR=-5.566087479312185E-02
2456050.000000000 = A.D. 2012-May-02 12:00:00.0000 TDB 
 X = 3.920024002700750E+09 Y =-2.184231510638118E+09 Z =-4.534419792706847E+07
 VX= 2.601241124521902E+00 VY= 4.786074589036251E+00 VZ=-1.584030056560206E-01
 LT= 1.496937830284358E+04 RG= 4.487706716141345E+09 RR=-5.565974856602832E-02
2456051.000000000 = A.D. 2012-May-03 12:00:00.0000 TDB 
 X = 3.920248728095834E+09 Y =-2.183817982342828E+09 Z =-4.535788368906844E+07
 VX= 2.600735600867576E+00 VY= 4.786339654349551E+00 VZ=-1.583970397515921E-01
 LT= 1.496936226189252E+04 RG= 4.487701907185197E+09 RR=-5.565869258133452E-02
2456052.000000000 = A.D. 2012-May-04 12:00:00.0000 TDB 
 X = 3.920473409810348E+09 Y =-2.183404431145791E+09 Z =-4.537156893538415E+07
 VX= 2.600229999730899E+00 VY= 4.786604721576011E+00 VZ=-1.583910685164960E-01
 LT= 1.496934622123553E+04 RG= 4.487697098317211E+09 RR=-5.565770798256094E-02
